{"type": "FeatureCollection", "features": [ {"type": "Feature", "properties": {"norad_id": 54234, "name": "NOAA 21 (JPSS-2)", "group": "weather", "lat": -37.46342171401926, "lon": -80.4133283561057, "alt_km": 833.4732197332669, "timestamp": "2025-12-02T08:59:32.362524+00:00", "meta": {"OBJECT_NAME": "NOAA 21 (JPSS-2)", "OBJECT_ID": "2022-150A", "EPOCH": "2025-12-02T02:24:15.168384", "MEAN_MOTION": 14.19519242, "ECCENTRICITY": 0.0002563, "INCLINATION": 98.7446, "RA_OF_ASC_NODE": 272.542, "ARG_OF_PERICENTER": 57.8485, "MEAN_ANOMALY": 302.294, "EPHEMERIS_TYPE": 0, "CLASSIFICATION_TYPE": "U", "NORAD_CAT_ID": 54234, "ELEMENT_SET_NO": 999, "REV_AT_EPOCH": 15858, "BSTAR": 7.2477e-05, "MEAN_MOTION_DOT": 1.09e-06, "MEAN_MOTION_DDOT": 0}, "tle": {"line1": "1 54234U 22150A   25336.10017556  .00000109  00000+0  72477-4 0  9992", "line2": "2 54234  98.7446 272.5420 0002563  57.8485 302.2940 14.19519242158588"}}, "geometry": {"type": "Point", "coordinates": [-80.4133283561057, -37.46342171401926]}}, {"type": "Feature", "properties": {"norad_id": 54743, "name": "METEOSAT-12 (MTG-I1)", "group": "weather", "lat": 0.024072448797145134, "lon": -153.9696053180958, "alt_km": 35780.677909755665, "timestamp": "2025-12-02T08:59:32.362536+00:00", "meta": {"OBJECT_NAME": "METEOSAT-12 (MTG-I1)", "OBJECT_ID": "2022-170C", "EPOCH": "2025-12-02T03:30:34.806816", "MEAN_MOTION": 1.00273493, "ECCENTRICITY": 0.0001451, "INCLINATION": 0.7153, "RA_OF_ASC_NODE": 29.7901, "ARG_OF_PERICENTER": 213.1409, "MEAN_ANOMALY": 240.6702, "EPHEMERIS_TYPE": 0, "CLASSIFICATION_TYPE": "U", "NORAD_CAT_ID": 54743, "ELEMENT_SET_NO": 999, "REV_AT_EPOCH": 1100, "BSTAR": 0, "MEAN_MOTION_DOT": 1.4e-07, "MEAN_MOTION_DDOT": 0}, "tle": {"line1": "1 54743U 22170C   25336.14623619  .00000014  00000+0  00000+0 0  9999", "line2": "2 54743   0.7153  29.7901 0001451 213.1409 240.6702  1.00273493 11002"}}, "geometry": {"type": "Point", "coordinates": [-153.9696053180958, 0.024072448797145134]}}, {"type": "Feature", "properties": {"norad_id": 55973, "name": "TIANMU-1 03", "group": "weather", "lat": 53.24293111920009, "lon": 128.56661899398347, "alt_km": 437.35024119338686, "timestamp": "2025-12-02T08:59:32.362547+00:00", "meta": {"OBJECT_NAME": "TIANMU-1 03", "OBJECT_ID": "2023-039A", "EPOCH": "2025-12-02T04:04:55.915968", "MEAN_MOTION": 15.40447037, "ECCENTRICITY": 0.0004525, "INCLINATION": 97.5103, "RA_OF_ASC_NODE": 138.53, "ARG_OF_PERICENTER": 91.6272, "MEAN_ANOMALY": 268.5492, "EPHEMERIS_TYPE": 0, "CLASSIFICATION_TYPE": "U", "NORAD_CAT_ID": 55973, "ELEMENT_SET_NO": 999, "REV_AT_EPOCH": 15043, "BSTAR": 0.00045274, "MEAN_MOTION_DOT": 0.00018271, "MEAN_MOTION_DDOT": 0}, "tle": {"line1": "1 55973U 23039A   25336.17009162  .00018271  00000+0  45274-3 0  9994", "line2": "2 55973  97.5103 138.5300 0004525  91.6272 268.5492 15.40447037150433"}}, "geometry": {"type": "Point", "coordinates": [128.56661899398347, 53.24293111920009]}}, {"type": "Feature", "properties": {"norad_id": 55974, "name": "TIANMU-1 04", "group": "weather", "lat": 24.03866931081566, "lon": -38.69405964783805, "alt_km": 442.0213556825438, "timestamp": "2025-12-02T08:59:32.362558+00:00", "meta": {"OBJECT_NAME": "TIANMU-1 04", "OBJECT_ID": "2023-039B", "EPOCH": "2025-12-02T05:12:07.966368", "MEAN_MOTION": 15.40777706, "ECCENTRICITY": 0.0005251, "INCLINATION": 97.5035, "RA_OF_ASC_NODE": 137.7734, "ARG_OF_PERICENTER": 87.5614, "MEAN_ANOMALY": 272.6233, "EPHEMERIS_TYPE": 0, "CLASSIFICATION_TYPE": "U", "NORAD_CAT_ID": 55974, "ELEMENT_SET_NO": 999, "REV_AT_EPOCH": 15044, "BSTAR": 0.0004837, "MEAN_MOTION_DOT": 0.00019747, "MEAN_MOTION_DDOT": 0}, "tle": {"line1": "1 55974U 23039B   25336.21675887  .00019747  00000+0  48370-3 0  9992", "line2": "2 55974  97.5035 137.7734 0005251  87.5614 272.6233 15.40777706150440"}}, "geometry": {"type": "Point", "coordinates": [-38.69405964783805, 24.03866931081566]}}, {"type": "Feature", "properties": {"norad_id": 55975, "name": "TIANMU-1 05", "group": "weather", "lat": -21.41068016296931, "lon": -44.53712033688376, "alt_km": 450.5040643819202, "timestamp": "2025-12-02T08:59:32.362568+00:00", "meta": {"OBJECT_NAME": "TIANMU-1 05", "OBJECT_ID": "2023-039C", "EPOCH": "2025-12-02T05:00:09.508032", "MEAN_MOTION": 15.40406852, "ECCENTRICITY": 0.0004324, "INCLINATION": 97.508, "RA_OF_ASC_NODE": 138.2566, "ARG_OF_PERICENTER": 108.2037, "MEAN_ANOMALY": 251.968, "EPHEMERIS_TYPE": 0, "CLASSIFICATION_TYPE": "U", "NORAD_CAT_ID": 55975, "ELEMENT_SET_NO": 999, "REV_AT_EPOCH": 15042, "BSTAR": 0.00047182, "MEAN_MOTION_DOT": 0.0001902, "MEAN_MOTION_DDOT": 0}, "tle": {"line1": "1 55975U 23039C   25336.20844338  .00019020  00000+0  47182-3 0  9995", "line2": "2 55975  97.5080 138.2566 0004324 108.2037 251.9680 15.40406852150425"}}, "geometry": {"type": "Point", "coordinates": [-44.53712033688376, -21.41068016296931]}}, {"type": "Feature", "properties": {"norad_id": 55976, "name": "TIANMU-1 06", "group": "weather", "lat": 37.93192393236754, "lon": -35.21523218173432, "alt_km": 438.4488370635072, "timestamp": "2025-12-02T08:59:32.362579+00:00", "meta": {"OBJECT_NAME": "TIANMU-1 06", "OBJECT_ID": "2023-039D", "EPOCH": "2025-12-02T03:42:15.806304", "MEAN_MOTION": 15.40828052, "ECCENTRICITY": 0.0004659, "INCLINATION": 97.5092, "RA_OF_ASC_NODE": 138.6576, "ARG_OF_PERICENTER": 103.8992, "MEAN_ANOMALY": 256.2772, "EPHEMERIS_TYPE": 0, "CLASSIFICATION_TYPE": "U", "NORAD_CAT_ID": 55976, "ELEMENT_SET_NO": 999, "REV_AT_EPOCH": 15043, "BSTAR": 0.00047113, "MEAN_MOTION_DOT": 0.0001926, "MEAN_MOTION_DDOT": 0}, "tle": {"line1": "1 55976U 23039D   25336.15434961  .00019260  00000+0  47113-3 0  9997", "line2": "2 55976  97.5092 138.6576 0004659 103.8992 256.2772 15.40828052150437"}}, "geometry": {"type": "Point", "coordinates": [-35.21523218173432, 37.93192393236754]}}, {"type": "Feature", "properties": {"norad_id": 56232, "name": "FENGYUN 3G", "group": "weather", "lat": 34.32431451494688, "lon": -44.10593388608745, "alt_km": 400.2246041291901, "timestamp": "2025-12-02T08:59:32.362589+00:00", "meta": {"OBJECT_NAME": "FENGYUN 3G", "OBJECT_ID": "2023-055A", "EPOCH": "2025-12-02T04:09:19.912032", "MEAN_MOTION": 15.52680373, "ECCENTRICITY": 0.0009233, "INCLINATION": 49.9948, "RA_OF_ASC_NODE": 281.9431, "ARG_OF_PERICENTER": 97.5762, "MEAN_ANOMALY": 262.6254, "EPHEMERIS_TYPE": 0, "CLASSIFICATION_TYPE": "U", "NORAD_CAT_ID": 56232, "ELEMENT_SET_NO": 999, "REV_AT_EPOCH": 14938, "BSTAR": 0.000607, "MEAN_MOTION_DOT": 0.00037954, "MEAN_MOTION_DDOT": 0}, "tle": {"line1": "1 56232U 23055A   25336.17314713  .00037954  00000+0  60700-3 0  9992", "line2": "2 56232  49.9948 281.9431 0009233  97.5762 262.6254 15.52680373149386"}}, "geometry": {"type": "Point", "coordinates": [-44.10593388608745, 34.32431451494688]}}, {"type": "Feature", "properties": {"norad_id": 57166, "name": "METEOR-M2 3", "group": "weather", "lat": 59.818142587376634, "lon": 14.940491441109886, "alt_km": 803.0293654559882, "timestamp": "2025-12-02T08:59:32.362599+00:00", "meta": {"OBJECT_NAME": "METEOR-M2 3", "OBJECT_ID": "2023-091A", "EPOCH": "2025-12-02T05:20:04.684416", "MEAN_MOTION": 14.24023955, "ECCENTRICITY": 0.000446, "INCLINATION": 98.6393, "RA_OF_ASC_NODE": 29.9446, "ARG_OF_PERICENTER": 36.8876, "MEAN_ANOMALY": 323.2609, "EPHEMERIS_TYPE": 0, "CLASSIFICATION_TYPE": "U", "NORAD_CAT_ID": 57166, "ELEMENT_SET_NO": 999, "REV_AT_EPOCH": 12648, "BSTAR": 3.2462e-05, "MEAN_MOTION_DOT": 3.1e-07, "MEAN_MOTION_DDOT": 0}, "tle": {"line1": "1 57166U 23091A   25336.22227644  .00000031  00000+0  32462-4 0  9992", "line2": "2 57166  98.6393  29.9446 0004460  36.8876 323.2609 14.24023955126482"}}, "geometry": {"type": "Point", "coordinates": [14.940491441109886, 59.818142587376634]}}, {"type": "Feature", "properties": {"norad_id": 57399, "name": "TIANMU-1 07", "group": "weather", "lat": -23.339061831850405, "lon": 29.621095431758707, "alt_km": 490.35739249440667, "timestamp": "2025-12-02T08:59:32.362609+00:00", "meta": {"OBJECT_NAME": "TIANMU-1 07", "OBJECT_ID": "2023-101A", "EPOCH": "2025-12-01T20:31:12.719712", "MEAN_MOTION": 15.27822096, "ECCENTRICITY": 0.0005553, "INCLINATION": 97.29, "RA_OF_ASC_NODE": 25.9465, "ARG_OF_PERICENTER": 109.2705, "MEAN_ANOMALY": 250.9136, "EPHEMERIS_TYPE": 0, "CLASSIFICATION_TYPE": "U", "NORAD_CAT_ID": 57399, "ELEMENT_SET_NO": 999, "REV_AT_EPOCH": 13149, "BSTAR": 0.00029009, "MEAN_MOTION_DOT": 7.813e-05, "MEAN_MOTION_DDOT": 0}, "tle": {"line1": "1 57399U 23101A   25335.85500833  .00007813  00000+0  29009-3 0  9991", "line2": "2 57399  97.2900  25.9465 0005553 109.2705 250.9136 15.27822096131491"}}, "geometry": {"type": "Point", "coordinates": [29.621095431758707, -23.339061831850405]}}, {"type": "Feature", "properties": {"norad_id": 57400, "name": "TIANMU-1 08", "group": "weather", "lat": 20.705013036932048, "lon": -150.97256165719344, "alt_km": 478.8841008017598, "timestamp": "2025-12-02T08:59:32.362619+00:00", "meta": {"OBJECT_NAME": "TIANMU-1 08", "OBJECT_ID": "2023-101B", "EPOCH": "2025-12-01T21:17:45.525408", "MEAN_MOTION": 15.27808273, "ECCENTRICITY": 0.0007427, "INCLINATION": 97.2888, "RA_OF_ASC_NODE": 25.778, "ARG_OF_PERICENTER": 114.3124, "MEAN_ANOMALY": 245.8891, "EPHEMERIS_TYPE": 0, "CLASSIFICATION_TYPE": "U", "NORAD_CAT_ID": 57400, "ELEMENT_SET_NO": 999, "REV_AT_EPOCH": 13149, "BSTAR": 0.00031213, "MEAN_MOTION_DOT": 8.412e-05, "MEAN_MOTION_DDOT": 0}, "tle": {"line1": "1 57400U 23101B   25335.88733247  .00008412  00000+0  31213-3 0  9990", "line2": "2 57400  97.2888  25.7780 0007427 114.3124 245.8891 15.27808273131493"}}, "geometry": {"type": "Point", "coordinates": [-150.97256165719344, 20.705013036932048]}}]}